ACS3                    
1 59588U 24077B   24274.12990455  .00013019  00000+0  14815-1 0  9992
2 59588  97.4334 317.9885 0048645 192.6625 167.3309 13.69583127 21755
